STARLINK-31933          
1 59874U 24098S   26068.01466107  .00002962  00000+0  11716-3 0  9990
2 59874  42.9985 281.7463 0000885 283.3365  76.7387 15.27564911101746
TEVEL2-8                
1 63239U 25052AF  26068.66815442  .00019130  00000+0  69304-3 0  9993
2 63239  97.4055 324.2923 0008031 124.9191 235.2804 15.28392908 54807
